FENGYUN 3D              
1 43010U 17072A   26191.33352627  .00000523  00000+0  26907-3 0  9991
2 43010  99.0139 166.1754 0001792  24.3365 335.7895 14.19745759448270
NOAA 20 (JPSS-1)        
1 43013U 17073A   26191.26180646  .00000002  00000+0  21984-4 0  9990
2 43013  98.7774 130.5199 0001196 129.2304 230.8978 14.19515837447748
GOES 17                 
1 43226U 18022A   26191.26402478 -.00000173  00000+0  00000+0 0  9992
2 43226   0.9931  85.3338 0000589  76.7091 131.7011  1.00271015 30658
SENTINEL-3B             
1 43437U 18039A   26190.42086302  .00000053  00000+0  40007-4 0  9997
2 43437  98.6239 257.6331 0001016 120.0757 240.0524 14.26741005427298
FENGYUN 2H              
1 43491U 18050A   26191.08358605 -.00000119  00000+0  00000+0 0  9999
2 43491   3.0864  78.8122 0002195 128.8025 189.6973  1.00267887 29660
METOP-C                 
1 43689U 18087A   26191.29583951  .00000047  00000+0  41153-4 0  9993
2 43689  98.6632 250.4757 0002229  99.9121 260.2308 14.21518204398113
GEO-KOMPSAT-2A          
1 43823U 18100A   26191.30718499 -.00000333  00000+0  00000+0 0  9998
2 43823   0.0246 125.7009 0002003 334.7747  66.6073  1.00272278 27868
METEOR-M2 2             
1 44387U 19038A   26191.28536243  .00000346  00000+0  16937-3 0  9990
2 44387  98.9159 178.9127 0001039  13.2765 346.8441 14.24373096364586
ARKTIKA-M 1             
1 47719U 21016A   26188.42887598 -.00000257  00000+0  00000+0 0  9997
2 47719  63.2524  54.6812 7295086 270.0380  14.5466  2.00614486 39194
FENGYUN 3E              
1 49008U 21062A   26191.24436719 -.00000064  00000+0 -94150-5 0  9992
2 49008  98.7504 194.3953 0002487  47.9587 312.1801 14.19905921259857
GOES 18                 
1 51850U 22021A   26191.33562411  .00000107  00000+0  00000+0 0  9996
2 51850   0.0078  75.5119 0000599 116.1688  80.3980  1.00272063  6823
NOAA 21 (JPSS-2)        
1 54234U 22150A   26191.29418373  .00000017  00000+0  28944-4 0  9992
2 54234  98.7061 129.6953 0002717 113.0054 247.1409 14.19540581189820
METEOSAT-12 (MTG-I1)    
1 54743U 22170C   26191.33308481  .00000002  00000+0  00000+0 0  9994
2 54743   0.7198  18.8197 0003827  83.1984 305.9022  1.00266807 13215
TIANMU-1 03             
1 55973U 23039A   26191.26239381  .00010901  00000+0  21076-3 0  9998
2 55973  97.5242   6.1473 0002996  39.1239 321.0227 15.47949457184403
TIANMU-1 04             
1 55974U 23039B   26191.30741830  .00011228  00000+0  21239-3 0  9995
2 55974  97.5175   5.3500 0003521  31.1461 328.9997 15.48570145184422
TIANMU-1 05             
1 55975U 23039C   26191.30893707  .00010815  00000+0  20965-3 0  9993
2 55975  97.5220   5.8023 0003404  58.7629 301.3954 15.47872669184399
TIANMU-1 06             
1 55976U 23039D   26191.31227909  .00011075  00000+0  21027-3 0  9999
2 55976  97.5227   6.4650 0003519  51.6155 308.5411 15.48467807184429
FENGYUN 3G              
1 56232U 23055A   26191.26776942  .00015702  00000+0  24765-3 0  9996
2 56232  49.9915 227.0057 0007163  33.9048 326.2377 15.53641973183594
METEOR-M2 3             
1 57166U 23091A   26191.28501258 -.00000023  00000+0  89876-5 0  9998
2 57166  98.6070 245.7893 0005141 101.2821 258.8936 14.24048650157807
TIANMU-1 07             
1 57399U 23101A   26191.25327304  .00004324  00000+0  15110-3 0  9998
2 57399  97.2585 241.3936 0004016  74.9688 285.1997 15.30078680165171
TIANMU-1 08             
1 57400U 23101B   26191.28525075  .00004393  00000+0  15342-3 0  9992
2 57400  97.2574 241.1921 0005028  59.2172 300.9563 15.30083110165171
TIANMU-1 09             
1 57401U 23101C   26191.26814083  .00004432  00000+0  15456-3 0  9991
2 57401  97.2532 240.5794 0004636  75.7162 284.4593 15.30122369165172
TIANMU-1 10             
1 57402U 23101D   26191.30159980  .00004466  00000+0  15585-3 0  9995
2 57402  97.2612 241.6862 0006004  67.2247 292.9628 15.30096108165175
FENGYUN 3F              
1 57490U 23111A   26191.29819719  .00000012  00000+0  26073-4 0  9992
2 57490  98.6827 260.8753 0001374  78.4529 281.6802 14.19942931152141
ARKTIKA-M 2             
1 58584U 23198A   26189.19640102  .00000204  00000+0  00000+0 0  9996
2 58584  63.2191 152.0158 6908458 267.3598  18.7565  2.00608968 18747
TIANMU-1 11             
1 58645U 23205A   26191.24943749  .00003665  00000+0  14002-3 0  9990
2 58645  97.3446 212.4466 0006787 284.3308  75.7177 15.27232336141042
TIANMU-1 12             
1 58646U 23205B   26191.28681587  .00003809  00000+0  14620-3 0  9990
2 58646  97.3435 212.2324 0005518 257.0213 103.0410 15.27063002141031
TIANMU-1 13             
1 58647U 23205C   26191.32023392  .00003785  00000+0  14531-3 0  9994
2 58647  97.3462 212.5434 0005356 233.2435 126.8312 15.27055727141038
TIANMU-1 14             
1 58648U 23205D   26191.30476650  .00003684  00000+0  14130-3 0  9995
2 58648  97.3399 211.6919 0006029 241.3559 118.7074 15.27099788141031
TIANMU-1 19             
1 58660U 23208A   26191.28208411  .00005800  00000+0  19070-3 0  9997
2 58660  97.4516 307.7073 0004107 217.4554 142.6401 15.31927349140867
