OBJECT_NAME,OBJECT_ID,EPOCH,MEAN_MOTION,ECCENTRICITY,INCLINATION,RA_OF_ASC_NODE,ARG_OF_PERICENTER,MEAN_ANOMALY,EPHEMERIS_TYPE,CLASSIFICATION_TYPE,NORAD_CAT_ID,ELEMENT_SET_NO,REV_AT_EPOCH,BSTAR,MEAN_MOTION_DOT,MEAN_MOTION_DDOT
FENGYUN 3D,2017-072A,2026-07-10T08:00:16.669728,14.19745759,.0001792,99.0139,166.1754,24.3365,335.7895,0,U,43010,999,44827,.26906806E-3,.523E-5,0
NOAA 20 (JPSS-1),2017-073A,2026-07-10T06:17:00.078144,14.19515837,.00011967,98.7774,130.5199,129.2304,230.8978,0,U,43013,999,44774,.21983803E-4,.2E-7,0
GOES 17,2018-022A,2026-07-10T06:20:11.740992,1.00271015,.00005895,0.9931,85.3338,76.7091,131.7011,0,U,43226,999,3065,0,-.173E-5,0
SENTINEL-3B,2018-039A,2026-07-09T10:06:02.564928,14.26741005,.00010167,98.6239,257.6331,120.0757,240.0524,0,U,43437,999,42729,.40006667E-4,.53E-6,0
FENGYUN 2H,2018-050A,2026-07-10T02:00:21.834720,1.00267887,.00021958,3.0864,78.8122,128.8025,189.6973,0,U,43491,999,2966,0,-.119E-5,0
METOP-C,2018-087A,2026-07-10T07:06:00.533664,14.21518204,.00022296,98.6632,250.4757,99.9121,260.2308,0,U,43689,999,39811,.4115306E-4,.47E-6,0
GEO-KOMPSAT-2A,2018-100A,2026-07-10T07:22:20.783136,1.00272278,.00020036,0.0246,125.7009,334.7747,66.6073,0,U,43823,999,2786,0,-.333E-5,0
METEOR-M2 2,2019-038A,2026-07-10T06:50:55.313952,14.24373096,.00010399,98.9159,178.9127,13.2765,346.8441,0,U,44387,999,36458,.16936844E-3,.346E-5,0
ARKTIKA-M 1,2021-016A,2026-07-07T10:17:34.884672,2.00614486,.72950864,63.2524,54.6812,270.0380,14.5466,0,U,47719,999,3919,0,-.257E-5,0
FENGYUN 3E,2021-062A,2026-07-10T05:51:53.325216,14.19905921,.00024878,98.7504,194.3953,47.9587,312.1801,0,U,49008,999,25985,-.9415014E-5,-.64E-6,0
GOES 18,2022-021A,2026-07-10T08:03:17.923104,1.00272063,.00005994,0.0078,75.5119,116.1688,80.3980,0,U,51850,999,682,0,.107E-5,0
NOAA 21 (JPSS-2),2022-150A,2026-07-10T07:03:37.474272,14.19540581,.00027173,98.7061,129.6953,113.0054,247.1409,0,U,54234,999,18982,.28944119E-4,.17E-6,0
METEOSAT-12 (MTG-I1),2022-170C,2026-07-10T07:59:38.527584,1.00266807,.00038271,0.7198,18.8197,83.1984,305.9022,0,U,54743,999,1321,0,.2E-7,0
TIANMU-1 03,2023-039A,2026-07-10T06:17:50.825184,15.47949457,.00029967,97.5242,6.1473,39.1239,321.0227,0,U,55973,999,18440,.21075904E-3,.10901E-3,0
TIANMU-1 04,2023-039B,2026-07-10T07:22:40.941120,15.48570145,.00035211,97.5175,5.3500,31.1461,328.9997,0,U,55974,999,18442,.21238672E-3,.11228E-3,0
TIANMU-1 05,2023-039C,2026-07-10T07:24:52.162848,15.47872669,.00034045,97.5220,5.8023,58.7629,301.3954,0,U,55975,999,18439,.20965484E-3,.10815E-3,0
TIANMU-1 06,2023-039D,2026-07-10T07:29:40.913376,15.48467807,.00035192,97.5227,6.4650,51.6155,308.5411,0,U,55976,999,18442,.21026642E-3,.11075E-3,0
FENGYUN 3G,2023-055A,2026-07-10T06:25:35.277888,15.53641973,.00071635,49.9915,227.0057,33.9048,326.2377,0,U,56232,999,18359,.24765233E-3,.15702E-3,0
METEOR-M2 3,2023-091A,2026-07-10T06:50:25.086912,14.24048650,.00051419,98.6070,245.7893,101.2821,258.8936,0,U,57166,999,15780,.8987613E-5,-.23E-6,0
TIANMU-1 07,2023-101A,2026-07-10T06:04:42.790656,15.30078680,.00040164,97.2585,241.3936,74.9688,285.1997,0,U,57399,999,16517,.15109739E-3,.4324E-4,0
TIANMU-1 08,2023-101B,2026-07-10T06:50:45.664800,15.30083110,.0005028,97.2574,241.1921,59.2172,300.9563,0,U,57400,999,16517,.15342379E-3,.4393E-4,0
TIANMU-1 09,2023-101C,2026-07-10T06:26:07.367712,15.30122369,.00046362,97.2532,240.5794,75.7162,284.4593,0,U,57401,999,16517,.15456171E-3,.4432E-4,0
TIANMU-1 10,2023-101D,2026-07-10T07:14:18.222720,15.30096108,.00060047,97.2612,241.6862,67.2247,292.9628,0,U,57402,999,16517,.1558487E-3,.4466E-4,0
FENGYUN 3F,2023-111A,2026-07-10T07:09:24.237216,14.19942931,.00013745,98.6827,260.8753,78.4529,281.6802,0,U,57490,999,15214,.26072737E-4,.12E-6,0
ARKTIKA-M 2,2023-198A,2026-07-08T04:42:49.048128,2.00608968,.69084583,63.2191,152.0158,267.3598,18.7565,0,U,58584,999,1874,0,.204E-5,0
TIANMU-1 11,2023-205A,2026-07-10T05:59:11.399136,15.27232336,.00067874,97.3446,212.4466,284.3308,75.7177,0,U,58645,999,14104,.14001891E-3,.3665E-4,0
TIANMU-1 12,2023-205B,2026-07-10T06:53:00.891168,15.27063002,.00055188,97.3435,212.2324,257.0213,103.0410,0,U,58646,999,14103,.14619557E-3,.3809E-4,0
TIANMU-1 13,2023-205C,2026-07-10T07:41:08.210688,15.27055727,.00053566,97.3462,212.5434,233.2435,126.8312,0,U,58647,999,14103,.1453108E-3,.3785E-4,0
TIANMU-1 14,2023-205D,2026-07-10T07:18:51.825600,15.27099788,.00060293,97.3399,211.6919,241.3559,118.7074,0,U,58648,999,14103,.14129592E-3,.3684E-4,0
TIANMU-1 19,2023-208A,2026-07-10T06:46:12.067104,15.31927349,.00041073,97.4516,307.7073,217.4554,142.6401,0,U,58660,999,14086,.19070075E-3,.58E-4,0
